STARLINK-4351           
1 53193U 22084E   26068.71255429  .00000530  00000+0  45803-4 0  9995
2 53193  97.6036 130.2379 0002083  87.3881 272.7581 15.01258627200334
KUIPER-00139            
1 65765U 25217D   26068.30974975  .00011274  00000+0  87196-3 0  9990
2 65765  51.8865  35.5400 0007119 318.9010  41.1425 15.01890214 24959
